OBJECT_NAME,OBJECT_ID,EPOCH,MEAN_MOTION,ECCENTRICITY,INCLINATION,RA_OF_ASC_NODE,ARG_OF_PERICENTER,MEAN_ANOMALY,EPHEMERIS_TYPE,CLASSIFICATION_TYPE,NORAD_CAT_ID,ELEMENT_SET_NO,REV_AT_EPOCH,BSTAR,MEAN_MOTION_DOT,MEAN_MOTION_DDOT
SAUDISAT 1C (SO-50),2002-058C,2026-06-05T08:30:32.361408,14.83020071,.00754949,64.5503,165.5947,264.6340,94.6150,0,U,27607,999,26270,.13926976E-3,.1035E-4,0
SAUDISAT 2,2004-025F,2026-06-05T21:37:51.456000,14.56677279,.00241479,98.5506,156.5917,334.1568,25.8421,0,U,28371,999,16410,.85853776E-4,.335E-5,0
SAUDISAT 3,2007-012B,2026-06-05T20:01:23.414592,14.71419019,.0013265,98.1451,107.2278,263.3121,96.6575,0,U,31118,999,2607,.63912E-4,.345E-5,0
PISAT,2016-059B,2026-06-05T21:43:00.360192,14.68964111,.00276505,97.8178,157.8427,240.1718,119.6739,0,U,41784,999,51808,.19423589E-3,.1096E-4,0
FLYING LAPTOP,2017-042G,2026-06-06T06:04:54.033024,15.01071612,.00189929,97.4648,313.2109,157.4267,202.7797,0,U,42831,999,48481,.30174437E-3,.3816E-4,0
SALSAT,2020-068K,2026-06-05T12:02:50.089632,15.29623212,.000921,97.8853,158.8572,354.5258,5.5879,0,U,46495,999,31357,.29741857E-3,.8465E-4,0
